[{"OBJECT_NAME":"STARLINK-30887","OBJECT_ID":"2023-178W","EPOCH":"2026-03-09T05:20:10.641696","MEAN_MOTION":15.3018891,"ECCENTRICITY":9.249e-5,"INCLINATION":53.1618,"RA_OF_ASC_NODE":3.5105,"ARG_OF_PERICENTER":88.339,"MEAN_ANOMALY":271.7716,"EPHEMERIS_TYPE":0,"CLASSIFICATION_TYPE":"U","NORAD_CAT_ID":58394,"ELEMENT_SET_NO":999,"REV_AT_EPOCH":12979,"BSTAR":3.0951253e-5,"MEAN_MOTION_DOT":5.58e-6,"MEAN_MOTION_DDOT":0},{"OBJECT_NAME":"NOAA 17 DEB","OBJECT_ID":"2002-032AF","EPOCH":"2026-03-09T00:24:06.552000","MEAN_MOTION":15.25501717,"ECCENTRICITY":0.00030847,"INCLINATION":98.6472,"RA_OF_ASC_NODE":92.5947,"ARG_OF_PERICENTER":165.9893,"MEAN_ANOMALY":194.1428,"EPHEMERIS_TYPE":0,"CLASSIFICATION_TYPE":"U","NORAD_CAT_ID":48614,"ELEMENT_SET_NO":999,"REV_AT_EPOCH":26420,"BSTAR":0.01090047,"MEAN_MOTION_DOT":0.00286783,"MEAN_MOTION_DDOT":0}]
